CCSDS_OMM_VERS = 2.0
CREATION_DATE  = 
ORIGINATOR     = 

OBJECT_NAME    = SL-14 R/B
OBJECT_ID      = 1991-042B
CENTER_NAME    = EARTH
REF_FRAME      = TEME
TIME_SYSTEM    = UTC
MEAN_ELEMENT_THEORY = SGP/SGP4

EPOCH          = 2026-02-01T23:14:54.436704
MEAN_MOTION    = 14.81794751
ECCENTRICITY   = .00171292
INCLINATION    = 82.4906
RA_OF_ASC_NODE = 253.6872
ARG_OF_PERICENTER = 3.7303
MEAN_ANOMALY   = 356.4035

EPHEMERIS_TYPE = 0
CLASSIFICATION_TYPE = U
NORAD_CAT_ID   = 21423
ELEMENT_SET_NO = 999
REV_AT_EPOCH   = 84778
BSTAR          = .45966718E-4
MEAN_MOTION_DOT = .387E-5
MEAN_MOTION_DDOT = 0

CCSDS_OMM_VERS = 2.0
CREATION_DATE  = 
ORIGINATOR     = 

OBJECT_NAME    = ERS-1
OBJECT_ID      = 1991-050A
CENTER_NAME    = EARTH
REF_FRAME      = TEME
TIME_SYSTEM    = UTC
MEAN_ELEMENT_THEORY = SGP/SGP4

EPOCH          = 2026-02-01T23:14:27.920544
MEAN_MOTION    = 14.39418269
ECCENTRICITY   = .00310885
INCLINATION    = 98.7895
RA_OF_ASC_NODE = 50.3048
ARG_OF_PERICENTER = 309.4829
MEAN_ANOMALY   = 50.3609

EPHEMERIS_TYPE = 0
CLASSIFICATION_TYPE = U
NORAD_CAT_ID   = 21574
ELEMENT_SET_NO = 999
REV_AT_EPOCH   = 81059
BSTAR          = .14068E-3
MEAN_MOTION_DOT = .393E-5
MEAN_MOTION_DDOT = 0

CCSDS_OMM_VERS = 2.0
CREATION_DATE  = 
ORIGINATOR     = 

OBJECT_NAME    = ARIANE 40 R/B
OBJECT_ID      = 1991-050F
CENTER_NAME    = EARTH
REF_FRAME      = TEME
TIME_SYSTEM    = UTC
MEAN_ELEMENT_THEORY = SGP/SGP4

EPOCH          = 2026-02-01T18:10:48.960768
MEAN_MOTION    = 14.42865254
ECCENTRICITY   = .00034144
INCLINATION    = 98.2086
RA_OF_ASC_NODE = 86.3293
ARG_OF_PERICENTER = 162.7009
MEAN_ANOMALY   = 197.4299

EPHEMERIS_TYPE = 0
CLASSIFICATION_TYPE = U
NORAD_CAT_ID   = 21610
ELEMENT_SET_NO = 999
REV_AT_EPOCH   = 81381
BSTAR          = .11603424E-3
MEAN_MOTION_DOT = .346E-5
MEAN_MOTION_DDOT = 0

CCSDS_OMM_VERS = 2.0
CREATION_DATE  = 
ORIGINATOR     = 

OBJECT_NAME    = INTERCOSMOS 25
OBJECT_ID      = 1991-086A
CENTER_NAME    = EARTH
REF_FRAME      = TEME
TIME_SYSTEM    = UTC
MEAN_ELEMENT_THEORY = SGP/SGP4

EPOCH          = 2026-02-01T21:47:10.739616
MEAN_MOTION    = 12.11902115
ECCENTRICITY   = .14864765
INCLINATION    = 82.6091
RA_OF_ASC_NODE = 331.6309
ARG_OF_PERICENTER = 194.0288
MEAN_ANOMALY   = 161.4816

EPHEMERIS_TYPE = 0
CLASSIFICATION_TYPE = U
NORAD_CAT_ID   = 21819
ELEMENT_SET_NO = 999
REV_AT_EPOCH   = 49235
BSTAR          = .15963856E-3
MEAN_MOTION_DOT = .824E-5
MEAN_MOTION_DDOT = 0

CCSDS_OMM_VERS = 2.0
CREATION_DATE  = 
ORIGINATOR     = 

OBJECT_NAME    = SL-8 R/B
OBJECT_ID      = 1992-008B
CENTER_NAME    = EARTH
REF_FRAME      = TEME
TIME_SYSTEM    = UTC
MEAN_ELEMENT_THEORY = SGP/SGP4

EPOCH          = 2026-02-01T19:11:48.475968
MEAN_MOTION    = 13.75969012
ECCENTRICITY   = .0033505
INCLINATION    = 82.9277
RA_OF_ASC_NODE = 294.4759
ARG_OF_PERICENTER = 233.8779
MEAN_ANOMALY   = 188.5729

EPHEMERIS_TYPE = 0
CLASSIFICATION_TYPE = U
NORAD_CAT_ID   = 21876
ELEMENT_SET_NO = 999
REV_AT_EPOCH   = 70448
BSTAR          = .59854229E-4
MEAN_MOTION_DOT = .73E-6
MEAN_MOTION_DDOT = 0

CCSDS_OMM_VERS = 2.0
CREATION_DATE  = 
ORIGINATOR     = 

OBJECT_NAME    = SL-8 R/B
OBJECT_ID      = 1992-020B
CENTER_NAME    = EARTH
REF_FRAME      = TEME
TIME_SYSTEM    = UTC
MEAN_ELEMENT_THEORY = SGP/SGP4

EPOCH          = 2026-02-01T21:57:15.753888
MEAN_MOTION    = 13.75543558
ECCENTRICITY   = .00296983
INCLINATION    = 82.9319
RA_OF_ASC_NODE = 180.3159
ARG_OF_PERICENTER = 39.8034
MEAN_ANOMALY   = 72.3539

EPHEMERIS_TYPE = 0
CLASSIFICATION_TYPE = U
NORAD_CAT_ID   = 21938
ELEMENT_SET_NO = 999
REV_AT_EPOCH   = 69621
BSTAR          = .9457543E-4
MEAN_MOTION_DOT = .107E-5
MEAN_MOTION_DDOT = 0

CCSDS_OMM_VERS = 2.0
CREATION_DATE  = 
ORIGINATOR     = 

OBJECT_NAME    = USA 81
OBJECT_ID      = 1992-023A
CENTER_NAME    = EARTH
REF_FRAME      = TEME
TIME_SYSTEM    = UTC
MEAN_ELEMENT_THEORY = SGP/SGP4

EPOCH          = 2026-02-01T19:43:08.216832
MEAN_MOTION    = 14.32353448
ECCENTRICITY   = .00024263
INCLINATION    = 85.0118
RA_OF_ASC_NODE = 152.1216
ARG_OF_PERICENTER = 109.2497
MEAN_ANOMALY   = 250.8959

EPHEMERIS_TYPE = 0
CLASSIFICATION_TYPE = U
NORAD_CAT_ID   = 21949
ELEMENT_SET_NO = 999
REV_AT_EPOCH   = 8965
BSTAR          = .76681241E-4
MEAN_MOTION_DOT = .227E-5
MEAN_MOTION_DDOT = 0

CCSDS_OMM_VERS = 2.0
CREATION_DATE  = 
ORIGINATOR     = 

OBJECT_NAME    = COSMOS 2219
OBJECT_ID      = 1992-076A
CENTER_NAME    = EARTH
REF_FRAME      = TEME
TIME_SYSTEM    = UTC
MEAN_ELEMENT_THEORY = SGP/SGP4

EPOCH          = 2026-02-01T14:03:35.089920
MEAN_MOTION    = 14.14078217
ECCENTRICITY   = .00206434
INCLINATION    = 71.0594
RA_OF_ASC_NODE = 93.5469
ARG_OF_PERICENTER = 257.1307
MEAN_ANOMALY   = 102.7510

EPHEMERIS_TYPE = 0
CLASSIFICATION_TYPE = U
NORAD_CAT_ID   = 22219
ELEMENT_SET_NO = 999
REV_AT_EPOCH   = 71327
BSTAR          = -.98858537E-4
MEAN_MOTION_DOT = -.236E-5
MEAN_MOTION_DDOT = 0

CCSDS_OMM_VERS = 2.0
CREATION_DATE  = 
ORIGINATOR     = 

OBJECT_NAME    = SL-16 R/B
OBJECT_ID      = 1992-076B
CENTER_NAME    = EARTH
REF_FRAME      = TEME
TIME_SYSTEM    = UTC
MEAN_ELEMENT_THEORY = SGP/SGP4

EPOCH          = 2026-02-01T23:32:01.798368
MEAN_MOTION    = 14.16852182
ECCENTRICITY   = .00119717
INCLINATION    = 70.9985
RA_OF_ASC_NODE = 263.5957
ARG_OF_PERICENTER = 159.0109
MEAN_ANOMALY   = 300.5504

EPHEMERIS_TYPE = 0
CLASSIFICATION_TYPE = U
NORAD_CAT_ID   = 22220
ELEMENT_SET_NO = 999
REV_AT_EPOCH   = 71677
BSTAR          = .16136833E-3
MEAN_MOTION_DOT = .276E-5
MEAN_MOTION_DDOT = 0

CCSDS_OMM_VERS = 2.0
CREATION_DATE  = 
ORIGINATOR     = 

OBJECT_NAME    = COSMOS 2221
OBJECT_ID      = 1992-080A
CENTER_NAME    = EARTH
REF_FRAME      = TEME
TIME_SYSTEM    = UTC
MEAN_ELEMENT_THEORY = SGP/SGP4

EPOCH          = 2026-02-01T20:32:40.674048
MEAN_MOTION    = 14.96046717
ECCENTRICITY   = .0013403
INCLINATION    = 82.5068
RA_OF_ASC_NODE = 313.3960
ARG_OF_PERICENTER = 319.2175
MEAN_ANOMALY   = 40.8043

EPHEMERIS_TYPE = 0
CLASSIFICATION_TYPE = U
NORAD_CAT_ID   = 22236
ELEMENT_SET_NO = 999
REV_AT_EPOCH   = 77543
BSTAR          = .21635284E-3
MEAN_MOTION_DOT = .2458E-4
MEAN_MOTION_DDOT = 0

CCSDS_OMM_VERS = 2.0
CREATION_DATE  = 
ORIGINATOR     = 

OBJECT_NAME    = SL-16 R/B
OBJECT_ID      = 1992-093B
CENTER_NAME    = EARTH
REF_FRAME      = TEME
TIME_SYSTEM    = UTC
MEAN_ELEMENT_THEORY = SGP/SGP4

EPOCH          = 2026-02-01T13:21:06.337440
MEAN_MOTION    = 14.15442613
ECCENTRICITY   = .00049406
INCLINATION    = 71.0209
RA_OF_ASC_NODE = 80.1227
ARG_OF_PERICENTER = 331.5769
MEAN_ANOMALY   = 28.5084

EPHEMERIS_TYPE = 0
CLASSIFICATION_TYPE = U
NORAD_CAT_ID   = 22285
ELEMENT_SET_NO = 999
REV_AT_EPOCH   = 70804
BSTAR          = -.84493568E-4
MEAN_MOTION_DOT = -.213E-5
MEAN_MOTION_DDOT = 0

CCSDS_OMM_VERS = 2.0
CREATION_DATE  = 
ORIGINATOR     = 

OBJECT_NAME    = COSMOS 2228
OBJECT_ID      = 1992-094A
CENTER_NAME    = EARTH
REF_FRAME      = TEME
TIME_SYSTEM    = UTC
MEAN_ELEMENT_THEORY = SGP/SGP4

EPOCH          = 2026-02-01T21:29:55.569120
MEAN_MOTION    = 14.97022345
ECCENTRICITY   = .00194584
INCLINATION    = 82.5168
RA_OF_ASC_NODE = 271.5848
ARG_OF_PERICENTER = 64.3052
MEAN_ANOMALY   = 296.0177

EPHEMERIS_TYPE = 0
CLASSIFICATION_TYPE = U
NORAD_CAT_ID   = 22286
ELEMENT_SET_NO = 999
REV_AT_EPOCH   = 77070
BSTAR          = .13349027E-3
MEAN_MOTION_DOT = .1569E-4
MEAN_MOTION_DDOT = 0

