SL-14 R/B               
1 21423U 91042B   26032.96868561  .00000387  00000+0  45967-4 0  9992
2 21423  82.4906 253.6872 0017129   3.7303 356.4035 14.81794751847789
ERS-1                   
1 21574U 91050A   26032.96837871  .00000393  00000+0  14068-3 0  9992
2 21574  98.7895  50.3048 0031088 309.4829  50.3609 14.39418269810595
ARIANE 40 R/B           
1 21610U 91050F   26032.75751112  .00000346  00000+0  11603-3 0  9993
2 21610  98.2086  86.3293 0003414 162.7009 197.4299 14.42865254813816
INTERCOSMOS 25          
1 21819U 91086A   26032.90776319  .00000824  00000+0  15964-3 0  9991
2 21819  82.6091 331.6309 1486476 194.0288 161.4816 12.11902115492355
SL-8 R/B                
1 21876U 92008B   26032.79986662  .00000073  00000+0  59854-4 0  9993
2 21876  82.9277 294.4759 0033505 233.8779 188.5729 13.75969012704482
SL-8 R/B                
1 21938U 92020B   26032.91476567  .00000107  00000+0  94575-4 0  9995
2 21938  82.9319 180.3159 0029698  39.8034  72.3539 13.75543558696214
USA 81                  
1 21949U 92023A   26032.82162288  .00000227  00000+0  76681-4 0  9993
2 21949  85.0118 152.1216 0002426 109.2497 250.8959 14.32353448 89657
COSMOS 2219             
1 22219U 92076A   26032.58582280 -.00000236  00000+0 -98859-4 0  9996
2 22219  71.0594  93.5469 0020643 257.1307 102.7510 14.14078217713271
SL-16 R/B               
1 22220U 92076B   26032.98057637  .00000276  00000+0  16137-3 0  9995
2 22220  70.9985 263.5957 0011971 159.0109 300.5504 14.16852182716772
COSMOS 2221             
1 22236U 92080A   26032.85602632  .00002458  00000+0  21635-3 0  9997
2 22236  82.5068 313.3960 0013403 319.2175  40.8043 14.96046717775430
SL-16 R/B               
1 22285U 92093B   26032.55632335 -.00000213  00000+0 -84494-4 0  9997
2 22285  71.0209  80.1227 0004940 331.5769  28.5084 14.15442613708048
COSMOS 2228             
1 22286U 92094A   26032.89578205  .00001569  00000+0  13349-3 0  9994
2 22286  82.5168 271.5848 0019458  64.3052 296.0177 14.97022345770704
